{
  "type": "FeatureCollection",
  "features": [
    {
      "type": "Feature",
      "properties": {
        "norad_id": 44334,
        "name": "EUTELSAT 7C",
        "group": "eutelsat",
        "lat": 0.014265163760581453,
        "lon": 13.16359676693649,
        "alt_km": 35797.384230899035,
        "timestamp": "2025-12-03T19:33:06.651115+00:00",
        "meta_object_name": "EUTELSAT 7C",
        "meta_object_id": "2019-034B",
        "meta_epoch": "2025-12-03T06:56:26.020320",
        "meta_mean_motion": 1.00269069,
        "meta_eccentricity": 0.0003399,
        "meta_inclination": 0.0762,
        "meta_ra_of_asc_node": 181.9926,
        "meta_arg_of_pericenter": 53.7303,
        "meta_mean_anomaly": 307.756,
        "meta_ephemeris_type": 0,
        "meta_classification_type": "U",
        "meta_norad_cat_id": 44334,
        "meta_element_set_no": 999,
        "meta_rev_at_epoch": 487,
        "meta_bstar": 0,
        "meta_mean_motion_dot": 6.7e-07,
        "meta_mean_motion_ddot": 0,
        "tle_line1": "1 44334U 19034B   25337.28919005  .00000067  00000+0  00000+0 0  9990",
        "tle_line2": "2 44334   0.0762 181.9926 0003399  53.7303 307.7560  1.00269069  4876"
      },
      "geometry": {
        "type": "Point",
        "coordinates": [
          13.16359676693649,
          0.014265163760581453
        ]
      }
    },
    {
      "type": "Feature",
      "properties": {
        "norad_id": 44624,
        "name": "EUTELSAT 5 WEST B",
        "group": "eutelsat",
        "lat": 0.055698622253128674,
        "lon": 1.2095784124650864,
        "alt_km": 35790.555761116055,
        "timestamp": "2025-12-03T19:33:06.651126+00:00",
        "meta_object_name": "EUTELSAT 5 WEST B",
        "meta_object_id": "2019-067A",
        "meta_epoch": "2025-12-03T06:52:56.355168",
        "meta_mean_motion": 1.00272745,
        "meta_eccentricity": 0.0003689,
        "meta_inclination": 0.0714,
        "meta_ra_of_asc_node": 328.1071,
        "meta_arg_of_pericenter": 285.389,
        "meta_mean_anomaly": 277.1323,
        "meta_ephemeris_type": 0,
        "meta_classification_type": "U",
        "meta_norad_cat_id": 44624,
        "meta_element_set_no": 999,
        "meta_rev_at_epoch": 2247,
        "meta_bstar": 0,
        "meta_mean_motion_dot": -2.3e-07,
        "meta_mean_motion_ddot": 0,
        "tle_line1": "1 44624U 19067A   25337.28676337 -.00000023  00000+0  00000+0 0  9999",
        "tle_line2": "2 44624   0.0714 328.1071 0003689 285.3890 277.1323  1.00272745 22475"
      },
      "geometry": {
        "type": "Point",
        "coordinates": [
          1.2095784124650864,
          0.055698622253128674
        ]
      }
    },
    {
      "type": "Feature",
      "properties": {
        "norad_id": 45027,
        "name": "EUTELSAT KONNECT",
        "group": "eutelsat",
        "lat": -0.04017848684015964,
        "lon": 13.356474503966007,
        "alt_km": 35786.73208091863,
        "timestamp": "2025-12-03T19:33:06.651138+00:00",
        "meta_object_name": "EUTELSAT KONNECT",
        "meta_object_id": "2020-005B",
        "meta_epoch": "2025-12-03T08:39:12.545568",
        "meta_mean_motion": 1.00268225,
        "meta_eccentricity": 0.0001735,
        "meta_inclination": 0.068,
        "meta_ra_of_asc_node": 99.5076,
        "meta_arg_of_pericenter": 186.6252,
        "meta_mean_anomaly": 283.3105,
        "meta_ephemeris_type": 0,
        "meta_classification_type": "U",
        "meta_norad_cat_id": 45027,
        "meta_element_set_no": 999,
        "meta_rev_at_epoch": 2236,
        "meta_bstar": 0,
        "meta_mean_motion_dot": 6.8e-07,
        "meta_mean_motion_ddot": 0,
        "tle_line1": "1 45027U 20005B   25337.36056187  .00000068  00000+0  00000+0 0  9993",
        "tle_line2": "2 45027   0.0680  99.5076 0001735 186.6252 283.3105  1.00268225 22367"
      },
      "geometry": {
        "type": "Point",
        "coordinates": [
          13.356474503966007,
          -0.04017848684015964
        ]
      }
    },
    {
      "type": "Feature",
      "properties": {
        "norad_id": 49056,
        "name": "EUTELSAT QUANTUM",
        "group": "eutelsat",
        "lat": 0.02918740892721436,
        "lon": 53.88493473645393,
        "alt_km": 35799.54536422808,
        "timestamp": "2025-12-03T19:33:06.651150+00:00",
        "meta_object_name": "EUTELSAT QUANTUM",
        "meta_object_id": "2021-069B",
        "meta_epoch": "2025-12-03T10:33:31.592736",
        "meta_mean_motion": 1.00271746,
        "meta_eccentricity": 0.0003767,
        "meta_inclination": 0.0178,
        "meta_ra_of_asc_node": 15.1449,
        "meta_arg_of_pericenter": 251.0875,
        "meta_mean_anomaly": 12.3881,
        "meta_ephemeris_type": 0,
        "meta_classification_type": "U",
        "meta_norad_cat_id": 49056,
        "meta_element_set_no": 999,
        "meta_rev_at_epoch": 1596,
        "meta_bstar": 0,
        "meta_mean_motion_dot": 1.44e-06,
        "meta_mean_motion_ddot": 0,
        "tle_line1": "1 49056U 21069B   25337.43994899  .00000144  00000+0  00000+0 0  9994",
        "tle_line2": "2 49056   0.0178  15.1449 0003767 251.0875  12.3881  1.00271746 15969"
      },
      "geometry": {
        "type": "Point",
        "coordinates": [
          53.88493473645393,
          0.02918740892721436
        ]
      }
    },
    {
      "type": "Feature",
      "properties": {
        "norad_id": 53765,
        "name": "EUTELSAT KONNECT VHTS",
        "group": "eutelsat",
        "lat": -0.03359029905515632,
        "lon": 8.858732502048618,
        "alt_km": 35795.583499172535,
        "timestamp": "2025-12-03T19:33:06.651161+00:00",
        "meta_object_name": "EUTELSAT KONNECT VHTS",
        "meta_object_id": "2022-110A",
        "meta_epoch": "2025-12-03T05:12:28.480320",
        "meta_mean_motion": 1.00269007,
        "meta_eccentricity": 0.0002764,
        "meta_inclination": 0.0603,
        "meta_ra_of_asc_node": 107.1016,
        "meta_arg_of_pericenter": 123.1613,
        "meta_mean_anomaly": 282.8564,
        "meta_ephemeris_type": 0,
        "meta_classification_type": "U",
        "meta_norad_cat_id": 53765,
        "meta_element_set_no": 999,
        "meta_rev_at_epoch": 486,
        "meta_bstar": 0,
        "meta_mean_motion_dot": 3.6e-07,
        "meta_mean_motion_ddot": 0,
        "tle_line1": "1 53765U 22110A   25337.21699630  .00000036  00000+0  00000+0 0  9995",
        "tle_line2": "2 53765   0.0603 107.1016 0002764 123.1613 282.8564  1.00269007  4867"
      },
      "geometry": {
        "type": "Point",
        "coordinates": [
          8.858732502048618,
          -0.03359029905515632
        ]
      }
    },
    {
      "type": "Feature",
      "properties": {
        "norad_id": 54048,
        "name": "EUTELSAT HOTBIRD 13F",
        "group": "eutelsat",
        "lat": 0.07422070285940663,
        "lon": 19.165794101181316,
        "alt_km": 35778.72943973386,
        "timestamp": "2025-12-03T19:33:06.651173+00:00",
        "meta_object_name": "EUTELSAT HOTBIRD 13F",
        "meta_object_id": "2022-134A",
        "meta_epoch": "2025-12-02T19:57:38.448864",
        "meta_mean_motion": 1.00271371,
        "meta_eccentricity": 0.00019176,
        "meta_inclination": 0.0542,
        "meta_ra_of_asc_node": 289.0481,
        "meta_arg_of_pericenter": 66.1354,
        "meta_mean_anomaly": 29.1621,
        "meta_ephemeris_type": 0,
        "meta_classification_type": "U",
        "meta_norad_cat_id": 54048,
        "meta_element_set_no": 999,
        "meta_rev_at_epoch": 1140,
        "meta_bstar": 0,
        "meta_mean_motion_dot": 1.07e-06,
        "meta_mean_motion_ddot": 0,
        "tle_line1": "1 54048U 22134A   25336.83169501  .00000107  00000+0  00000+0 0  9991",
        "tle_line2": "2 54048   0.0542 289.0481 0001917  66.1354  29.1621  1.00271371 11408"
      },
      "geometry": {
        "type": "Point",
        "coordinates": [
          19.165794101181316,
          0.07422070285940663
        ]
      }
    },
    {
      "type": "Feature",
      "properties": {
        "norad_id": 54225,
        "name": "EUTELSAT HOTBIRD 13G",
        "group": "eutelsat",
        "lat": 0.04544556418834987,
        "lon": 19.14483111990204,
        "alt_km": 35794.740330778244,
        "timestamp": "2025-12-03T19:33:06.651185+00:00",
        "meta_object_name": "EUTELSAT HOTBIRD 13G",
        "meta_object_id": "2022-146A",
        "meta_epoch": "2025-12-03T00:07:14.496096",
        "meta_mean_motion": 1.00271219,
        "meta_eccentricity": 0.00021047,
        "meta_inclination": 0.0475,
        "meta_ra_of_asc_node": 238.4149,
        "meta_arg_of_pericenter": 306.4933,
        "meta_mean_anomaly": 262.0024,
        "meta_ephemeris_type": 0,
        "meta_classification_type": "U",
        "meta_norad_cat_id": 54225,
        "meta_element_set_no": 999,
        "meta_rev_at_epoch": 549,
        "meta_bstar": 0,
        "meta_mean_motion_dot": 1.07e-06,
        "meta_mean_motion_ddot": 0,
        "tle_line1": "1 54225U 22146A   25337.00502889  .00000107  00000+0  00000+0 0  9991",
        "tle_line2": "2 54225   0.0475 238.4149 0002104 306.4933 262.0024  1.00271219  5499"
      },
      "geometry": {
        "type": "Point",
        "coordinates": [
          19.14483111990204,
          0.04544556418834987
        ]
      }
    }
  ]
}